OBJECT_NAME,OBJECT_ID,EPOCH,MEAN_MOTION,ECCENTRICITY,INCLINATION,RA_OF_ASC_NODE,ARG_OF_PERICENTER,MEAN_ANOMALY,EPHEMERIS_TYPE,CLASSIFICATION_TYPE,NORAD_CAT_ID,ELEMENT_SET_NO,REV_AT_EPOCH,BSTAR,MEAN_MOTION_DOT,MEAN_MOTION_DDOT
ONEWEB-0275,2021-060AC,2026-06-25T12:18:51.976512,13.16594659,.00019512,87.9093,227.1224,96.6550,263.4803,0,U,48993,999,24065,.29105144E-3,.124E-5,0
ONEWEB-0276,2021-060AD,2026-06-25T13:06:44.106912,13.16594773,.00019406,87.9090,227.1153,93.1264,267.0089,0,U,48994,999,24067,-.14412028E-3,-.42E-6,0
ONEWEB-0277,2021-060AE,2026-06-25T13:24:59.651136,13.16594178,.0001996,87.9084,227.1211,101.2923,258.8433,0,U,48995,999,24066,-.96421715E-4,-.24E-6,0
ONEWEB-0278,2021-060AF,2026-06-25T04:04:06.525408,13.16593147,.00023017,87.9091,227.1893,96.5273,263.6120,0,U,48996,999,24074,-.10353097E-3,-.27E-6,0
ONEWEB-0279,2021-060AG,2026-06-25T13:22:41.710944,13.16595290,.000181,87.9091,227.1105,99.3315,260.8021,0,U,48997,999,24072,-.51671423E-4,-.7E-7,0
ONEWEB-0280,2021-060AH,2026-06-25T11:54:55.301760,13.16593995,.00022661,87.9089,227.1266,104.6946,255.4436,0,U,48998,999,24065,-.14163941E-3,-.41E-6,0
ONEWEB-0281,2021-060AJ,2026-06-25T12:02:53.675232,13.16595638,.00021139,87.9090,227.1208,96.1760,263.9612,0,U,48999,999,24072,.23366558E-3,.102E-5,0
ONEWEB-0282,2021-060AK,2026-06-25T12:46:12.786816,13.16593940,.00020609,87.9092,227.1229,100.5675,259.5688,0,U,49000,999,24070,.4005006E-3,.166E-5,0
ONEWEB-0283,2021-060AL,2026-06-25T12:30:15.391008,13.16594835,.00019028,87.9090,227.1245,98.2402,261.8944,0,U,49001,999,24071,.3090118E-3,.131E-5,0
ONEWEB-0284,2021-060AM,2026-06-25T12:21:08.574048,13.16595289,.00023258,87.9093,227.1193,101.3103,258.8289,0,U,49002,999,24069,.33905615E-3,.142E-5,0
ONEWEB-0285,2021-075A,2026-06-25T12:32:31.464096,13.12440848,.00019889,87.8937,349.0036,94.8372,265.2984,0,U,49075,999,23630,-.22274574E-2,-.789E-5,0
ONEWEB-0286,2021-075B,2026-06-25T12:06:42.463296,13.12441998,.00019141,87.8942,349.0234,86.5011,273.6336,0,U,49076,999,23565,-.16185045E-2,-.569E-5,0
ONEWEB-0287,2021-075C,2026-06-25T12:28:15.713184,13.17650366,.00021912,87.9134,4.2078,82.1618,277.9762,0,U,49077,999,23472,.11820611E-3,.59E-6,0
ONEWEB-0288,2021-075D,2026-06-25T11:32:45.530592,13.12442251,.00020498,87.8950,349.0055,91.3076,268.8287,0,U,49078,999,23627,.86988456E-3,.326E-5,0
ONEWEB-0289,2021-075E,2026-06-25T13:23:57.476832,13.17647884,.00020373,87.9136,4.2175,100.5742,259.5620,0,U,49079,999,23530,.13326501E-3,.65E-6,0
ONEWEB-0290,2021-075F,2026-06-25T12:45:17.513280,13.17649012,.00020351,87.9142,4.1947,103.9385,256.1973,0,U,49080,999,23471,-.7651177E-5,.1E-6,0
ONEWEB-0291,2021-075G,2026-06-25T12:23:25.032480,13.17649489,.00022539,87.9134,4.2050,90.3245,269.8145,0,U,49081,999,23470,.10790744E-3,.55E-6,0
ONEWEB-0293,2021-075H,2026-06-25T12:59:51.568512,13.17649095,.00019693,87.9132,4.2031,93.4067,266.7290,0,U,49082,999,23473,.29709716E-4,.24E-6,0
ONEWEB-0294,2021-075J,2026-06-25T11:42:31.176576,13.12440604,.00019773,87.8954,349.0080,101.6321,258.5029,0,U,49083,999,23566,.85509281E-4,.43E-6,0
ONEWEB-0295,2021-075K,2026-06-25T12:58:39.029664,13.17649137,.00021909,87.9132,4.2071,87.2750,272.8632,0,U,49084,999,23469,.93254293E-4,.49E-6,0
ONEWEB-0296,2021-075L,2026-06-25T13:03:02.307744,13.12442108,.00021536,87.8957,349.0047,91.4303,268.7072,0,U,49085,999,23567,.11751068E-2,.435E-5,0
ONEWEB-0297,2021-075M,2026-06-25T11:57:08.773344,13.12441226,.00019309,87.8941,349.0232,90.4104,269.7246,0,U,49086,999,23627,-.66969754E-3,-.228E-5,0
ONEWEB-0298,2021-075N,2026-06-25T13:04:55.871904,13.17648296,.00018509,87.9134,4.2045,85.4835,274.6508,0,U,49087,999,23472,-.81518321E-4,-.19E-6,0
ONEWEB-0299,2021-075P,2026-06-25T13:07:08.618592,13.17650762,.00019999,87.9143,4.1854,86.1382,273.9978,0,U,49088,999,23470,.13105175E-3,.64E-6,0
ONEWEB-0300,2021-075Q,2026-06-25T11:46:10.162560,13.12440796,.0001672,87.8953,349.0051,80.8801,279.2516,0,U,49089,999,23629,-.15282091E-3,-.42E-6,0
ONEWEB-0301,2021-075R,2026-06-25T11:23:00.354624,13.12440987,.00015641,87.8950,349.0064,84.7415,275.3892,0,U,49090,999,23565,.1126604E-2,.418E-5,0
ONEWEB-0302,2021-075S,2026-06-25T12:53:16.037088,13.12444922,.00020562,87.8953,349.0061,98.4417,261.6945,0,U,49091,999,23564,.10926438E-2,.406E-5,0
ONEWEB-0304,2021-075T,2026-06-25T12:30:41.765472,13.17649814,.00020082,87.9134,4.2118,87.3986,272.7376,0,U,49092,999,23467,.32224361E-4,.25E-6,0
ONEWEB-0305,2021-075U,2026-06-25T12:20:58.788384,13.17649789,.00022134,87.9141,4.1982,83.7313,276.4070,0,U,49093,999,23470,.61418416E-4,.37E-6,0
ONEWEB-0308,2021-075V,2026-06-25T12:43:30.031680,13.12445231,.00018177,87.8952,348.9995,92.3030,267.8306,0,U,49094,999,23565,.59006316E-3,.225E-5,0
