[
  {
    "name": "ONEWEB-0275",
    "noradId": "48993",
    "line1": "1 48993U 21060AC  26176.51310158  .00000124  00000+0  29105-3 0  9994",
    "line2": "2 48993  87.9093 227.1224 0001951  96.6550 263.4803 13.16594659240650"
  },
  {
    "name": "ONEWEB-0276",
    "noradId": "48994",
    "line1": "1 48994U 21060AD  26176.54634383 -.00000042  00000+0 -14412-3 0  9993",
    "line2": "2 48994  87.9090 227.1153 0001940  93.1264 267.0089 13.16594773240676"
  },
  {
    "name": "ONEWEB-0277",
    "noradId": "48995",
    "line1": "1 48995U 21060AE  26176.55902374 -.00000024  00000+0 -96422-4 0  9995",
    "line2": "2 48995  87.9084 227.1211 0001996 101.2923 258.8433 13.16594178240668"
  },
  {
    "name": "ONEWEB-0278",
    "noradId": "48996",
    "line1": "1 48996U 21060AF  26176.16951997 -.00000027  00000+0 -10353-3 0  9999",
    "line2": "2 48996  87.9091 227.1893 0002301  96.5273 263.6120 13.16593147240749"
  },
  {
    "name": "ONEWEB-0279",
    "noradId": "48997",
    "line1": "1 48997U 21060AG  26176.55742721 -.00000007  00000+0 -51671-4 0  9993",
    "line2": "2 48997  87.9091 227.1105 0001810  99.3315 260.8021 13.16595290240726"
  },
  {
    "name": "ONEWEB-0280",
    "noradId": "48998",
    "line1": "1 48998U 21060AH  26176.49647340 -.00000041  00000+0 -14164-3 0  9991",
    "line2": "2 48998  87.9089 227.1266 0002266 104.6946 255.4436 13.16593995240650"
  },
  {
    "name": "ONEWEB-0281",
    "noradId": "48999",
    "line1": "1 48999U 21060AJ  26176.50201013  .00000102  00000+0  23367-3 0  9998",
    "line2": "2 48999  87.9090 227.1208 0002113  96.1760 263.9612 13.16595638240723"
  },
  {
    "name": "ONEWEB-0282",
    "noradId": "49000",
    "line1": "1 49000U 21060AK  26176.53209244  .00000166  00000+0  40050-3 0  9997",
    "line2": "2 49000  87.9092 227.1229 0002060 100.5675 259.5688 13.16593940240704"
  },
  {
    "name": "ONEWEB-0283",
    "noradId": "49001",
    "line1": "1 49001U 21060AL  26176.52101147  .00000131  00000+0  30901-3 0  9996",
    "line2": "2 49001  87.9090 227.1245 0001902  98.2402 261.8944 13.16594835240712"
  },
  {
    "name": "ONEWEB-0284",
    "noradId": "49002",
    "line1": "1 49002U 21060AM  26176.51468257  .00000142  00000+0  33906-3 0  9994",
    "line2": "2 49002  87.9093 227.1193 0002325 101.3103 258.8289 13.16595289240691"
  },
  {
    "name": "ONEWEB-0285",
    "noradId": "49075",
    "line1": "1 49075U 21075A   26176.52258639 -.00000789  00000+0 -22275-2 0  9997",
    "line2": "2 49075  87.8937 349.0036 0001988  94.8372 265.2984 13.12440848236308"
  },
  {
    "name": "ONEWEB-0286",
    "noradId": "49076",
    "line1": "1 49076U 21075B   26176.50465814 -.00000569  00000+0 -16185-2 0  9990",
    "line2": "2 49076  87.8942 349.0234 0001914  86.5011 273.6336 13.12441998235650"
  },
  {
    "name": "ONEWEB-0287",
    "noradId": "49077",
    "line1": "1 49077U 21075C   26176.51962631  .00000059  00000+0  11821-3 0  9996",
    "line2": "2 49077  87.9134   4.2078 0002191  82.1618 277.9762 13.17650366234727"
  },
  {
    "name": "ONEWEB-0288",
    "noradId": "49078",
    "line1": "1 49078U 21075D   26176.48108253  .00000326  00000+0  86988-3 0  9998",
    "line2": "2 49078  87.8950 349.0055 0002049  91.3076 268.8287 13.12442251236270"
  },
  {
    "name": "ONEWEB-0289",
    "noradId": "49079",
    "line1": "1 49079U 21075E   26176.55830413  .00000065  00000+0  13327-3 0  9994",
    "line2": "2 49079  87.9136   4.2175 0002037 100.5742 259.5620 13.17647884235306"
  },
  {
    "name": "ONEWEB-0290",
    "noradId": "49080",
    "line1": "1 49080U 21075F   26176.53145270  .00000010  00000+0 -76512-5 0  9992",
    "line2": "2 49080  87.9142   4.1947 0002035 103.9385 256.1973 13.17649012234712"
  },
  {
    "name": "ONEWEB-0291",
    "noradId": "49081",
    "line1": "1 49081U 21075G   26176.51626195  .00000055  00000+0  10791-3 0  9994",
    "line2": "2 49081  87.9134   4.2050 0002253  90.3245 269.8145 13.17649489234705"
  },
  {
    "name": "ONEWEB-0293",
    "noradId": "49082",
    "line1": "1 49082U 21075H   26176.54156908  .00000024  00000+0  29710-4 0  9996",
    "line2": "2 49082  87.9132   4.2031 0001969  93.4067 266.7290 13.17649095234735"
  },
  {
    "name": "ONEWEB-0294",
    "noradId": "49083",
    "line1": "1 49083U 21075J   26176.48786084  .00000043  00000+0  85509-4 0  9993",
    "line2": "2 49083  87.8954 349.0080 0001977 101.6321 258.5029 13.12440604235667"
  },
  {
    "name": "ONEWEB-0295",
    "noradId": "49084",
    "line1": "1 49084U 21075K   26176.54072951  .00000049  00000+0  93254-4 0  9994",
    "line2": "2 49084  87.9132   4.2071 0002190  87.2750 272.8632 13.17649137234698"
  },
  {
    "name": "ONEWEB-0296",
    "noradId": "49085",
    "line1": "1 49085U 21075L   26176.54377671  .00000435  00000+0  11751-2 0  9991",
    "line2": "2 49085  87.8957 349.0047 0002153  91.4303 268.7072 13.12442108235671"
  },
  {
    "name": "ONEWEB-0297",
    "noradId": "49086",
    "line1": "1 49086U 21075M   26176.49801821 -.00000228  00000+0 -66970-3 0  9991",
    "line2": "2 49086  87.8941 349.0232 0001930  90.4104 269.7246 13.12441226236272"
  },
  {
    "name": "ONEWEB-0298",
    "noradId": "49087",
    "line1": "1 49087U 21075N   26176.54509111 -.00000019  00000+0 -81518-4 0  9999",
    "line2": "2 49087  87.9134   4.2045 0001850  85.4835 274.6508 13.17648296234721"
  },
  {
    "name": "ONEWEB-0299",
    "noradId": "49088",
    "line1": "1 49088U 21075P   26176.54662753  .00000064  00000+0  13105-3 0  9996",
    "line2": "2 49088  87.9143   4.1854 0001999  86.1382 273.9978 13.17650762234700"
  },
  {
    "name": "ONEWEB-0300",
    "noradId": "49089",
    "line1": "1 49089U 21075Q   26176.49039540 -.00000042  00000+0 -15282-3 0  9999",
    "line2": "2 49089  87.8953 349.0051 0001672  80.8801 279.2516 13.12440796236296"
  },
  {
    "name": "ONEWEB-0301",
    "noradId": "49090",
    "line1": "1 49090U 21075R   26176.47430966  .00000418  00000+0  11266-2 0  9998",
    "line2": "2 49090  87.8950 349.0064 0001564  84.7415 275.3892 13.12440987235658"
  },
  {
    "name": "ONEWEB-0302",
    "noradId": "49091",
    "line1": "1 49091U 21075S   26176.53699117  .00000406  00000+0  10926-2 0  9990",
    "line2": "2 49091  87.8953 349.0061 0002056  98.4417 261.6945 13.12444922235649"
  },
  {
    "name": "ONEWEB-0304",
    "noradId": "49092",
    "line1": "1 49092U 21075T   26176.52131673  .00000025  00000+0  32224-4 0  9992",
    "line2": "2 49092  87.9134   4.2118 0002008  87.3986 272.7376 13.17649814234675"
  },
  {
    "name": "ONEWEB-0305",
    "noradId": "49093",
    "line1": "1 49093U 21075U   26176.51456931  .00000037  00000+0  61418-4 0  9999",
    "line2": "2 49093  87.9141   4.1982 0002213  83.7313 276.4070 13.17649789234701"
  },
  {
    "name": "ONEWEB-0308",
    "noradId": "49094",
    "line1": "1 49094U 21075V   26176.53020870  .00000225  00000+0  59006-3 0  9999",
    "line2": "2 49094  87.8952 348.9995 0001817  92.3030 267.8306 13.12445231235657"
  }
]